[
  {
    "name": "ONEWEB-0236",
    "noradId": "48797",
    "line1": "1 48797U 21045AG  26181.94221584 -.00000021  00000+0 -90496-4 0  9996",
    "line2": "2 48797  87.8993 256.4661 0002152  98.5868 261.5506 13.15548892246064"
  },
  {
    "name": "ONEWEB-0248",
    "noradId": "48798",
    "line1": "1 48798U 21045AH  26181.95489219  .00000080  00000+0  17732-3 0  9993",
    "line2": "2 48798  87.9004 256.4487 0002118 112.6507 247.4847 13.15547852246229"
  },
  {
    "name": "ONEWEB-0225",
    "noradId": "48799",
    "line1": "1 48799U 21045AJ  26181.21649752  .00000065  00000+0  13802-3 0  9990",
    "line2": "2 48799  87.9003 256.6030 0001798 116.0102 244.1213 13.15549621246134"
  },
  {
    "name": "ONEWEB-0215",
    "noradId": "48800",
    "line1": "1 48800U 21045AK  26181.94696758  .00000069  00000+0  14939-3 0  9997",
    "line2": "2 48800  87.9009 256.4410 0001966 119.7452 240.3874 13.15547899246101"
  },
  {
    "name": "ONEWEB-0216",
    "noradId": "48801",
    "line1": "1 48801U 21045AL  26181.95647338 -.00000017  00000+0 -79451-4 0  9995",
    "line2": "2 48801  87.9005 256.4535 0001986  98.4366 261.6990 13.15548663246111"
  },
  {
    "name": "ONEWEB-0239",
    "noradId": "48802",
    "line1": "1 48802U 21045AM  26181.65699606  .00000071  00000+0  15388-3 0  9994",
    "line2": "2 48802  87.8995 256.5181 0002212 121.6232 238.5114 13.15548494246114"
  },
  {
    "name": "ONEWEB-0249",
    "noradId": "48967",
    "line1": "1 48967U 21060A   26181.58033761  .00000105  00000+0  24202-3 0  9992",
    "line2": "2 48967  87.9089 226.1182 0002117  98.8293 261.3078 13.16596233241372"
  },
  {
    "name": "ONEWEB-0250",
    "noradId": "48968",
    "line1": "1 48968U 21060B   26181.13705229  .00000052  00000+0  88900-4 0  9996",
    "line2": "2 48968  87.9088 223.9205 0003092 101.4532 258.6952 13.25835045241932"
  },
  {
    "name": "ONEWEB-0252",
    "noradId": "48970",
    "line1": "1 48970U 21060D   26181.15524780  .00000024  00000+0  30260-4 0  9997",
    "line2": "2 48970  87.9088 226.1950 0001829  93.5840 266.5501 13.16594784241363"
  },
  {
    "name": "ONEWEB-0253",
    "noradId": "48971",
    "line1": "1 48971U 21060E   26181.52415155 -.00000012  00000+0 -63854-4 0  9998",
    "line2": "2 48971  87.9088 226.1271 0002155  98.1749 261.9626 13.16594634241341"
  },
  {
    "name": "ONEWEB-0254",
    "noradId": "48972",
    "line1": "1 48972U 21060F   26181.53364380 -.00000121  00000+0 -35108-3 0  9994",
    "line2": "2 48972  87.9090 226.1232 0002107 104.7437 255.3928 13.16594924241341"
  },
  {
    "name": "ONEWEB-0255",
    "noradId": "48973",
    "line1": "1 48973U 21060G   26181.57164179  .00000021  00000+0  22183-4 0  9990",
    "line2": "2 48973  87.9088 226.1218 0002017 101.6802 258.4555 13.16595044241428"
  },
  {
    "name": "ONEWEB-0256",
    "noradId": "48974",
    "line1": "1 48974U 21060H   26181.52177385  .00000020  00000+0  18738-4 0  9999",
    "line2": "2 48974  87.9082 226.1350 0002013  92.4215 267.7147 13.16594543241389"
  },
  {
    "name": "ONEWEB-0257",
    "noradId": "48975",
    "line1": "1 48975U 21060J   26180.64225897  .00000049  00000+0  94117-4 0  9990",
    "line2": "2 48975  87.9087 226.2977 0001928  98.2864 261.8486 13.16595218241223"
  },
  {
    "name": "ONEWEB-0258",
    "noradId": "48976",
    "line1": "1 48976U 21060K   26181.09982781  .00000048  00000+0  91716-4 0  9994",
    "line2": "2 48976  87.9088 226.2189 0002094  96.9735 263.1634 13.16594505241292"
  },
  {
    "name": "ONEWEB-0259",
    "noradId": "48977",
    "line1": "1 48977U 21060L   26181.16948909  .00000075  00000+0  16313-3 0  9996",
    "line2": "2 48977  87.9085 226.2041 0002166 100.2711 259.8664 13.16595460241331"
  },
  {
    "name": "ONEWEB-0260",
    "noradId": "48978",
    "line1": "1 48978U 21060M   26181.16078082  .00000008  00000+0 -13036-4 0  9990",
    "line2": "2 48978  87.9080 226.2069 0001762  87.6254 272.5079 13.16594882241315"
  },
  {
    "name": "ONEWEB-0261",
    "noradId": "48979",
    "line1": "1 48979U 21060N   26181.58668382  .00000061  00000+0  12610-3 0  9999",
    "line2": "2 48979  87.9086 226.1222 0001801 102.1715 257.9618 13.16593374241424"
  },
  {
    "name": "ONEWEB-0262",
    "noradId": "48980",
    "line1": "1 48980U 21060P   26181.56689029 -.00000052  00000+0 -17018-3 0  9999",
    "line2": "2 48980  87.9086 226.1128 0002219 101.9036 258.2344 13.16594548241387"
  },
  {
    "name": "ONEWEB-0263",
    "noradId": "48981",
    "line1": "1 48981U 21060Q   26181.52255552 -.00000023  00000+0 -94408-4 0  9993",
    "line2": "2 48981  87.9090 226.1333 0001935 105.0330 255.1015 13.16595461241349"
  },
  {
    "name": "ONEWEB-0264",
    "noradId": "48982",
    "line1": "1 48982U 21060R   26181.17977737  .00000071  00000+0  15309-3 0  9994",
    "line2": "2 48982  87.9087 226.2044 0001801  96.4699 263.6637 13.16595195241303"
  },
  {
    "name": "ONEWEB-0266",
    "noradId": "48984",
    "line1": "1 48984U 21060T   26181.58114602  .00000094  00000+0  21176-3 0  9999",
    "line2": "2 48984  87.9088 226.1151 0002122  94.6673 265.4700 13.16595015241349"
  },
  {
    "name": "ONEWEB-0267",
    "noradId": "48985",
    "line1": "1 48985U 21060U   26181.13624183  .00000054  00000+0  10814-3 0  9994",
    "line2": "2 48985  87.9091 226.2006 0001905 101.5169 258.6176 13.16595494241296"
  },
  {
    "name": "ONEWEB-0268",
    "noradId": "48986",
    "line1": "1 48986U 21060V   26181.48455696  .00000031  00000+0  46972-4 0  9994",
    "line2": "2 48986  87.9087 226.1408 0001964  92.5548 267.5808 13.16592520241605"
  },
  {
    "name": "ONEWEB-0269",
    "noradId": "48987",
    "line1": "1 48987U 21060W   26181.16157128  .00000014  00000+0  32511-5 0  9995",
    "line2": "2 48987  87.9078 226.2063 0002068  89.9947 270.1421 13.16595817241336"
  },
  {
    "name": "ONEWEB-0270",
    "noradId": "48988",
    "line1": "1 48988U 21060X   26181.48297846  .00000035  00000+0  58408-4 0  9998",
    "line2": "2 48988  87.9087 226.1430 0002074 106.3624 253.7735 13.16595591241410"
  },
  {
    "name": "ONEWEB-0271",
    "noradId": "48989",
    "line1": "1 48989U 21060Y   26181.16632530  .00000038  00000+0  66044-4 0  9995",
    "line2": "2 48989  87.9085 226.1954 0001938 102.6589 257.4759 13.16595197241371"
  },
  {
    "name": "ONEWEB-0272",
    "noradId": "48990",
    "line1": "1 48990U 21060Z   26181.56848731  .00000163  00000+0  39329-3 0  9997",
    "line2": "2 48990  87.9080 226.1268 0001740  94.4949 265.6381 13.16593405241377"
  },
  {
    "name": "ONEWEB-0273",
    "noradId": "48991",
    "line1": "1 48991U 21060AA  26181.59063780  .00000023  00000+0  26665-4 0  9999",
    "line2": "2 48991  87.9090 226.1225 0002019 100.2657 259.8702 13.16595656241354"
  },
  {
    "name": "ONEWEB-0274",
    "noradId": "48992",
    "line1": "1 48992U 21060AB  26181.53997569 -.00000003  00000+0 -40812-4 0  9995",
    "line2": "2 48992  87.9078 226.1338 0001788  90.9025 269.2311 13.16594834241383"
  }
]